GSAT0101 (GALILEO-PFM)  
1 37846U 11060A   26129.13386752 -.00000065  00000+0  00000+0 0  9991
2 37846  57.0080 342.8206 0003847  35.7476 324.3172  1.70475815 90457
GSAT0102 (GALILEO-FM2)  
1 37847U 11060B   26128.76247646 -.00000066  00000+0  00000+0 0  9999
2 37847  57.0069 342.8314 0004205   8.0852 169.6345  1.70476054 90453
GSAT0103 (GALILEO-FM3)  
1 38857U 12055A   26129.76087510  .00000056  00000+0  00000+0 0  9997
2 38857  55.7835 102.5990 0005769 297.7369  62.1840  1.70473477 84353
GSAT0201 (GALILEO 5)    
1 40128U 14050A   26130.14893984 -.00000041  00000+0  00000+0 0  9997
2 40128  48.9172 274.9945 1668713 177.9066 182.9069  1.85519992 77611
GSAT0202 (GALILEO 6)    
1 40129U 14050B   26130.40461039 -.00000041  00000+0  00000+0 0  9999
2 40129  48.9347 274.0688 1669862 178.6457 181.8867  1.85520609 79780
GSAT0203 (GALILEO 7)    
1 40544U 15017A   26131.25816467 -.00000060  00000+0  00000+0 0  9998
2 40544  56.7986 342.6025 0001987 312.1423  47.8822  1.70476028 68575
GSAT0204 (GALILEO 8)    
1 40545U 15017B   26130.92725694 -.00000061  00000+0  00000+0 0  9994
2 40545  56.8051 342.6300 0002020 282.0074  78.0109  1.70475668 31610
GSAT0205 (GALILEO 9)    
1 40889U 15045A   26115.63255192 -.00000038  00000+0  00000+0 0  9992
2 40889  54.9613 223.1764 0005159 266.9978  92.9342  1.67410754 66085
GSAT0206 (GALILEO 10)   
1 40890U 15045B   26130.91590674  .00000006  00000+0  00000+0 0  9993
2 40890  54.9559 222.6337 0001772  27.2114 332.8341  1.70474023 66407
GSAT0209 (GALILEO 12)   
1 41174U 15079A   26131.08387511  .00000059  00000+0  00000+0 0  9997
2 41174  55.8056 102.2786 0005648 331.9247  28.0249  1.70473999 64145
GSAT0208 (GALILEO 11)   
1 41175U 15079B   26129.54439476  .00000054  00000+0  00000+0 0  9999
2 41175  55.8030 102.3177 0004993 332.7595  27.1929  1.70473953 64538
GSAT0211 (GALILEO 14)   
1 41549U 16030A   26130.25506024  .00000006  00000+0  00000+0 0  9993
2 41549  55.1062 222.7382 0002510 345.0589  14.9704  1.70474161 62028
GSAT0210 (GALILEO 13)   
1 41550U 16030B   26131.09891767  .00000006  00000+0  00000+0 0  9999
2 41550  55.1062 222.7131 0002114 165.3629 194.6792  1.70474204 62032
GSAT0207 (GALILEO 15)   
1 41859U 16069A   26129.61736481  .00000053  00000+0  00000+0 0  9991
2 41859  55.4752 102.1526 0005864 320.6044  39.3316  1.70473931 58740
GSAT0212 (GALILEO 16)   
1 41860U 16069B   26128.88424573  .00000050  00000+0  00000+0 0  9994
2 41860  55.4727 102.1679 0004704 343.9510  16.0107  1.70474213 58981
GSAT0213 (GALILEO 17)   
1 41861U 16069C   26125.14546651  .00000030  00000+0  00000+0 0  9991
2 41861  55.4725 102.2790 0005790 303.9672  55.9420  1.70474575 58785
GSAT0214 (GALILEO 18)   
1 41862U 16069D   26131.15746402  .00000058  00000+0  00000+0 0  9996
2 41862  55.4749 102.1057 0004785 311.0914  48.8472  1.70474151 59014
GSAT0215 (GALILEO 19)   
1 43055U 17079A   26129.30120246  .00000007  00000+0  00000+0 0  9994
2 43055  55.0850 222.5767 0001242 260.9196  99.1051  1.70474855 52323
GSAT0216 (GALILEO 20)   
1 43056U 17079B   26130.76553145  .00000006  00000+0  00000+0 0  9994
2 43056  55.0842 222.5365 0002138 282.0376  77.9750  1.70474912 52367
GSAT0217 (GALILEO 21)   
1 43057U 17079C   26128.63999956  .00000007  00000+0  00000+0 0  9993
2 43057  55.0833 222.5928 0002376 301.0777  58.9390  1.70474909 52314
GSAT0218 (GALILEO 22)   
1 43058U 17079D   26131.20637593  .00000006  00000+0  00000+0 0  9996
2 43058  55.0824 222.5198 0004901 272.4051  87.5752  1.70474690 52380
GSAT0221 (GALILEO 25)   
1 43564U 18060A   26129.93701904 -.00000062  00000+0  00000+0 0  9997
2 43564  57.1809 342.8137 0004311 308.7683  51.2333  1.70475907 48511
GSAT0222 (GALILEO 26)   
1 43565U 18060B   26128.39689268 -.00000067  00000+0  00000+0 0  9990
2 43565  57.1851 342.8588 0002059 282.1812  77.8343  1.70475651 48538
GSAT0219 (GALILEO 23)   
1 43566U 18060C   26129.79101278 -.00000062  00000+0  00000+0 0  9991
2 43566  57.1839 342.8226 0003067 333.7463  26.2781  1.70475821 48532
GSAT0220 (GALILEO 24)   
1 43567U 18060D   26130.59856089 -.00000060  00000+0  00000+0 0  9997
2 43567  57.1835 342.8017 0003121 326.9272  33.0943  1.70475765 48533
GSAT0223 (GALILEO 27)   
1 49809U 21116A   26131.33586507 -.00000059  00000+0  00000+0 0  9994
2 49809  57.1731 342.6714 0000571 234.4904 308.8517  1.70475869 27550
GSAT0224 (GALILEO 28)   
1 49810U 21116B   26131.13623872 -.00000059  00000+0  00000+0 0  9991
2 49810  57.1741 342.6756 0000328  94.8403  78.6024  1.70475916 27571
GSAT0225 (GALILEO 29)   
1 59598U 24079A   26126.75511000  .00000038  00000+0  00000+0 0  9993
2 59598  55.0938 102.2370 0002595 280.8273  77.0035  1.70474540 12607
GSAT0227 (GALILEO 30)   
1 59600U 24079C   26130.46152111  .00000056  00000+0  00000+0 0  9994
2 59600  55.0921 102.1320 0001489  22.6249 337.3619  1.70474320 12722
GSAT0232 (GALILEO 32)   
1 61182U 24167A   26130.10412978  .00000007  00000+0  00000+0 0  9997
2 61182  55.1961 222.3588 0005186 217.4724 138.7010  1.70474674 10229
GSAT0226 (GALILEO 31)   
1 61183U 24167B   26129.37367709  .00000007  00000+0  00000+0 0  9996
2 61183  55.1952 222.3860 0002061 204.4446 154.7726  1.70474572 10183
